[{"OBJECT_NAME":"6GSTARLAB","OBJECT_ID":"2025-276T","EPOCH":"2026-03-09T17:24:27.161568","MEAN_MOTION":15.17770534,"ECCENTRICITY":0.00054902,"INCLINATION":97.4314,"RA_OF_ASC_NODE":143.9369,"ARG_OF_PERICENTER":357.076,"MEAN_ANOMALY":3.044,"EPHEMERIS_TYPE":0,"CLASSIFICATION_TYPE":"U","NORAD_CAT_ID":66683,"ELEMENT_SET_NO":999,"REV_AT_EPOCH":1531,"BSTAR":0.00019396576,"MEAN_MOTION_DOT":3.852e-5,"MEAN_MOTION_DDOT":0},{"OBJECT_NAME":"FLAMINGO-1","OBJECT_ID":"2026-004AE","EPOCH":"2026-03-09T22:11:27.220704","MEAN_MOTION":15.17446566,"ECCENTRICITY":0.00039812,"INCLINATION":97.4546,"RA_OF_ASC_NODE":69.3601,"ARG_OF_PERICENTER":332.6166,"MEAN_ANOMALY":27.4857,"EPHEMERIS_TYPE":0,"CLASSIFICATION_TYPE":"U","NORAD_CAT_ID":67391,"ELEMENT_SET_NO":999,"REV_AT_EPOCH":869,"BSTAR":0.00014641045,"MEAN_MOTION_DOT":2.863e-5,"MEAN_MOTION_DDOT":0}]
